HULIANWANG DIGUI 12D    
1 65998U 25231D   25304.25682627  .00000085  00000+0  14736-3 0  9998
2 65998  49.9999 295.8168 0006692 317.0720  42.9661 14.04583300  2143
HULIANWANG DIGUI 12E    
1 65999U 25231E   25304.25803206  .00000053  00000+0  12863-3 0  9991
2 65999  50.0017 295.8268 0008257 326.7603  33.2782 14.03842570  2148
HULIANWANG DIGUI 12F    
1 66000U 25231F   25304.25375121  .00000077  00000+0  14162-3 0  9995
2 66000  50.0060 295.8120 0005532 321.9216  38.1298 14.04997113  2148
HULIANWANG DIGUI 12G    
1 66001U 25231G   25304.25499965  .00000056  00000+0  13093-3 0  9998
2 66001  50.0026 295.8116 0006672 334.6399  25.4177 14.03864447  2142
HULIANWANG DIGUI 12H    
1 66002U 25231H   25304.25614776  .00000295  00000+0  28189-3 0  9995
2 66002  50.0064 295.8264 0007687 325.5447  34.4958 14.03810230  2147
HULIANWANG DIGUI 12J    
1 66003U 25231J   25300.97848525  .00000139  00000+0  17740-3 0  9990
2 66003  50.0043 309.1429 0005603 313.2008  46.8428 14.05796708  1682
CZ-8A R/B               
1 66004U 25231K   25304.27402710  .00000036  00000+0  72066-4 0  9999
2 66004  50.0036 293.1567 0116699 137.6124 223.3879 14.30032229  2182
STARLINK-34849          
1 66005U 25232A   25304.25002315 -.01901710  00000+0 -18177-1 0  9998
2 66005  53.1592 348.6520 0001226  76.6598 100.1992 15.69049159  2715
STARLINK-35336          
1 66006U 25232B   25304.25002315 -.01919835  00000+0 -18358-1 0  9997
2 66006  53.1595 348.6474 0001475  83.5627  95.2020 15.69065648  2721
STARLINK-35196          
1 66007U 25232C   25304.25002315 -.01919396  00000+0 -18353-1 0  9995
2 66007  53.1597 348.6442 0001436  84.3213  96.3595 15.69065860  2721
STARLINK-35236          
1 66008U 25232D   25304.25002315 -.01915895  00000+0 -18317-1 0  9996
2 66008  53.1594 348.6392 0001329  78.1258 104.4718 15.69064072  2726
STARLINK-35276          
1 66009U 25232E   25304.25002315 -.01920192  00000+0 -18361-1 0  9992
2 66009  53.1596 348.6357 0001268  87.3456  97.1663 15.69068199  2714
