CCSDS_OMM_VERS = 2.0
CREATION_DATE  = 
ORIGINATOR     = 

OBJECT_NAME    = HULIANWANG DIGUI 12D
OBJECT_ID      = 2025-231D
CENTER_NAME    = EARTH
REF_FRAME      = TEME
TIME_SYSTEM    = UTC
MEAN_ELEMENT_THEORY = SGP/SGP4

EPOCH          = 2025-10-31T06:09:49.789728
MEAN_MOTION    = 14.04583300
ECCENTRICITY   = .00066922
INCLINATION    = 49.9999
RA_OF_ASC_NODE = 295.8168
ARG_OF_PERICENTER = 317.0720
MEAN_ANOMALY   = 42.9661

EPHEMERIS_TYPE = 0
CLASSIFICATION_TYPE = U
NORAD_CAT_ID   = 65998
ELEMENT_SET_NO = 999
REV_AT_EPOCH   = 214
BSTAR          = .14736167E-3
MEAN_MOTION_DOT = .85E-6
MEAN_MOTION_DDOT = 0

CCSDS_OMM_VERS = 2.0
CREATION_DATE  = 
ORIGINATOR     = 

OBJECT_NAME    = HULIANWANG DIGUI 12E
OBJECT_ID      = 2025-231E
CENTER_NAME    = EARTH
REF_FRAME      = TEME
TIME_SYSTEM    = UTC
MEAN_ELEMENT_THEORY = SGP/SGP4

EPOCH          = 2025-10-31T06:11:33.969984
MEAN_MOTION    = 14.03842570
ECCENTRICITY   = .00082577
INCLINATION    = 50.0017
RA_OF_ASC_NODE = 295.8268
ARG_OF_PERICENTER = 326.7603
MEAN_ANOMALY   = 33.2782

EPHEMERIS_TYPE = 0
CLASSIFICATION_TYPE = U
NORAD_CAT_ID   = 65999
ELEMENT_SET_NO = 999
REV_AT_EPOCH   = 214
BSTAR          = .12862634E-3
MEAN_MOTION_DOT = .53E-6
MEAN_MOTION_DDOT = 0

CCSDS_OMM_VERS = 2.0
CREATION_DATE  = 
ORIGINATOR     = 

OBJECT_NAME    = HULIANWANG DIGUI 12F
OBJECT_ID      = 2025-231F
CENTER_NAME    = EARTH
REF_FRAME      = TEME
TIME_SYSTEM    = UTC
MEAN_ELEMENT_THEORY = SGP/SGP4

EPOCH          = 2025-10-31T06:05:24.104544
MEAN_MOTION    = 14.04997113
ECCENTRICITY   = .00055321
INCLINATION    = 50.0060
RA_OF_ASC_NODE = 295.8120
ARG_OF_PERICENTER = 321.9216
MEAN_ANOMALY   = 38.1298

EPHEMERIS_TYPE = 0
CLASSIFICATION_TYPE = U
NORAD_CAT_ID   = 66000
ELEMENT_SET_NO = 999
REV_AT_EPOCH   = 214
BSTAR          = .14162204E-3
MEAN_MOTION_DOT = .77E-6
MEAN_MOTION_DDOT = 0

CCSDS_OMM_VERS = 2.0
CREATION_DATE  = 
ORIGINATOR     = 

OBJECT_NAME    = HULIANWANG DIGUI 12G
OBJECT_ID      = 2025-231G
CENTER_NAME    = EARTH
REF_FRAME      = TEME
TIME_SYSTEM    = UTC
MEAN_ELEMENT_THEORY = SGP/SGP4

EPOCH          = 2025-10-31T06:07:11.969760
MEAN_MOTION    = 14.03864447
ECCENTRICITY   = .0006672
INCLINATION    = 50.0026
RA_OF_ASC_NODE = 295.8116
ARG_OF_PERICENTER = 334.6399
MEAN_ANOMALY   = 25.4177

EPHEMERIS_TYPE = 0
CLASSIFICATION_TYPE = U
NORAD_CAT_ID   = 66001
ELEMENT_SET_NO = 999
REV_AT_EPOCH   = 214
BSTAR          = .13093422E-3
MEAN_MOTION_DOT = .56E-6
MEAN_MOTION_DDOT = 0

CCSDS_OMM_VERS = 2.0
CREATION_DATE  = 
ORIGINATOR     = 

OBJECT_NAME    = HULIANWANG DIGUI 12H
OBJECT_ID      = 2025-231H
CENTER_NAME    = EARTH
REF_FRAME      = TEME
TIME_SYSTEM    = UTC
MEAN_ELEMENT_THEORY = SGP/SGP4

EPOCH          = 2025-10-31T06:08:51.166464
MEAN_MOTION    = 14.03810230
ECCENTRICITY   = .00076871
INCLINATION    = 50.0064
RA_OF_ASC_NODE = 295.8264
ARG_OF_PERICENTER = 325.5447
MEAN_ANOMALY   = 34.4958

EPHEMERIS_TYPE = 0
CLASSIFICATION_TYPE = U
NORAD_CAT_ID   = 66002
ELEMENT_SET_NO = 999
REV_AT_EPOCH   = 214
BSTAR          = .28188862E-3
MEAN_MOTION_DOT = .295E-5
MEAN_MOTION_DDOT = 0

CCSDS_OMM_VERS = 2.0
CREATION_DATE  = 
ORIGINATOR     = 

OBJECT_NAME    = HULIANWANG DIGUI 12J
OBJECT_ID      = 2025-231J
CENTER_NAME    = EARTH
REF_FRAME      = TEME
TIME_SYSTEM    = UTC
MEAN_ELEMENT_THEORY = SGP/SGP4

EPOCH          = 2025-10-27T23:29:01.125600
MEAN_MOTION    = 14.05796708
ECCENTRICITY   = .00056033
INCLINATION    = 50.0043
RA_OF_ASC_NODE = 309.1429
ARG_OF_PERICENTER = 313.2008
MEAN_ANOMALY   = 46.8428

EPHEMERIS_TYPE = 0
CLASSIFICATION_TYPE = U
NORAD_CAT_ID   = 66003
ELEMENT_SET_NO = 999
REV_AT_EPOCH   = 168
BSTAR          = .17739515E-3
MEAN_MOTION_DOT = .139E-5
MEAN_MOTION_DDOT = 0

CCSDS_OMM_VERS = 2.0
CREATION_DATE  = 
ORIGINATOR     = 

OBJECT_NAME    = CZ-8A R/B
OBJECT_ID      = 2025-231K
CENTER_NAME    = EARTH
REF_FRAME      = TEME
TIME_SYSTEM    = UTC
MEAN_ELEMENT_THEORY = SGP/SGP4

EPOCH          = 2025-10-31T06:34:35.941440
MEAN_MOTION    = 14.30032229
ECCENTRICITY   = .01166999
INCLINATION    = 50.0036
RA_OF_ASC_NODE = 293.1567
ARG_OF_PERICENTER = 137.6124
MEAN_ANOMALY   = 223.3879

EPHEMERIS_TYPE = 0
CLASSIFICATION_TYPE = U
NORAD_CAT_ID   = 66004
ELEMENT_SET_NO = 999
REV_AT_EPOCH   = 218
BSTAR          = .72065516E-4
MEAN_MOTION_DOT = .36E-6
MEAN_MOTION_DDOT = 0

CCSDS_OMM_VERS = 2.0
CREATION_DATE  = 
ORIGINATOR     = 

OBJECT_NAME    = STARLINK-34849
OBJECT_ID      = 2025-232A
CENTER_NAME    = EARTH
REF_FRAME      = TEME
TIME_SYSTEM    = UTC
MEAN_ELEMENT_THEORY = SGP/SGP4

EPOCH          = 2025-10-31T06:00:02.000160
MEAN_MOTION    = 15.69049159
ECCENTRICITY   = .00012261
INCLINATION    = 53.1592
RA_OF_ASC_NODE = 348.6520
ARG_OF_PERICENTER = 76.6598
MEAN_ANOMALY   = 100.1992

EPHEMERIS_TYPE = 0
CLASSIFICATION_TYPE = U
NORAD_CAT_ID   = 66005
ELEMENT_SET_NO = 999
REV_AT_EPOCH   = 271
BSTAR          = -.18176628E-1
MEAN_MOTION_DOT = -.190171E-1
MEAN_MOTION_DDOT = 0

CCSDS_OMM_VERS = 2.0
CREATION_DATE  = 
ORIGINATOR     = 

OBJECT_NAME    = STARLINK-35336
OBJECT_ID      = 2025-232B
CENTER_NAME    = EARTH
REF_FRAME      = TEME
TIME_SYSTEM    = UTC
MEAN_ELEMENT_THEORY = SGP/SGP4

EPOCH          = 2025-10-31T06:00:02.000160
MEAN_MOTION    = 15.69065648
ECCENTRICITY   = .00014757
INCLINATION    = 53.1595
RA_OF_ASC_NODE = 348.6474
ARG_OF_PERICENTER = 83.5627
MEAN_ANOMALY   = 95.2020

EPHEMERIS_TYPE = 0
CLASSIFICATION_TYPE = U
NORAD_CAT_ID   = 66006
ELEMENT_SET_NO = 999
REV_AT_EPOCH   = 272
BSTAR          = -.18357599E-1
MEAN_MOTION_DOT = -.1919835E-1
MEAN_MOTION_DDOT = 0

CCSDS_OMM_VERS = 2.0
CREATION_DATE  = 
ORIGINATOR     = 

OBJECT_NAME    = STARLINK-35196
OBJECT_ID      = 2025-232C
CENTER_NAME    = EARTH
REF_FRAME      = TEME
TIME_SYSTEM    = UTC
MEAN_ELEMENT_THEORY = SGP/SGP4

EPOCH          = 2025-10-31T06:00:02.000160
MEAN_MOTION    = 15.69065860
ECCENTRICITY   = .00014363
INCLINATION    = 53.1597
RA_OF_ASC_NODE = 348.6442
ARG_OF_PERICENTER = 84.3213
MEAN_ANOMALY   = 96.3595

EPHEMERIS_TYPE = 0
CLASSIFICATION_TYPE = U
NORAD_CAT_ID   = 66007
ELEMENT_SET_NO = 999
REV_AT_EPOCH   = 272
BSTAR          = -.1835302E-1
MEAN_MOTION_DOT = -.1919396E-1
MEAN_MOTION_DDOT = 0

CCSDS_OMM_VERS = 2.0
CREATION_DATE  = 
ORIGINATOR     = 

OBJECT_NAME    = STARLINK-35236
OBJECT_ID      = 2025-232D
CENTER_NAME    = EARTH
REF_FRAME      = TEME
TIME_SYSTEM    = UTC
MEAN_ELEMENT_THEORY = SGP/SGP4

EPOCH          = 2025-10-31T06:00:02.000160
MEAN_MOTION    = 15.69064072
ECCENTRICITY   = .00013299
INCLINATION    = 53.1594
RA_OF_ASC_NODE = 348.6392
ARG_OF_PERICENTER = 78.1258
MEAN_ANOMALY   = 104.4718

EPHEMERIS_TYPE = 0
CLASSIFICATION_TYPE = U
NORAD_CAT_ID   = 66008
ELEMENT_SET_NO = 999
REV_AT_EPOCH   = 272
BSTAR          = -.18317443E-1
MEAN_MOTION_DOT = -.1915895E-1
MEAN_MOTION_DDOT = 0

CCSDS_OMM_VERS = 2.0
CREATION_DATE  = 
ORIGINATOR     = 

OBJECT_NAME    = STARLINK-35276
OBJECT_ID      = 2025-232E
CENTER_NAME    = EARTH
REF_FRAME      = TEME
TIME_SYSTEM    = UTC
MEAN_ELEMENT_THEORY = SGP/SGP4

EPOCH          = 2025-10-31T06:00:02.000160
MEAN_MOTION    = 15.69068199
ECCENTRICITY   = .00012687
INCLINATION    = 53.1596
RA_OF_ASC_NODE = 348.6357
ARG_OF_PERICENTER = 87.3456
MEAN_ANOMALY   = 97.1663

EPHEMERIS_TYPE = 0
CLASSIFICATION_TYPE = U
NORAD_CAT_ID   = 66009
ELEMENT_SET_NO = 999
REV_AT_EPOCH   = 271
BSTAR          = -.1836116E-1
MEAN_MOTION_DOT = -.1920192E-1
MEAN_MOTION_DDOT = 0

